{"type":"FeatureCollection","features":[{"id":"0","type":"Feature","properties":{"name":"Balaghat / Bharveli","cluster":"balaghat"},"geometry":{"type":"Point","coordinates":[80.239336,21.851853]}},{"id":"1","type":"Feature","properties":{"name":"Chikla","cluster":"chikla"},"geometry":{"type":"Point","coordinates":[79.74348,21.53801]}},{"id":"2","type":"Feature","properties":{"name":"Tirodi","cluster":"tirodi"},"geometry":{"type":"Point","coordinates":[79.719128,21.681971]}},{"id":"3","type":"Feature","properties":{"name":"Dongri Buzurg","cluster":"chikla"},"geometry":{"type":"Point","coordinates":[79.676276,21.543965]}},{"id":"4","type":"Feature","properties":{"name":"Ukwa","cluster":"ukwa"},"geometry":{"type":"Point","coordinates":[80.457069,21.972343]}},{"id":"5","type":"Feature","properties":{"name":"Munsar","cluster":"beldongri"},"geometry":{"type":"Point","coordinates":[79.286392,21.404754]}},{"id":"6","type":"Feature","properties":{"name":"Mansar","cluster":"beldongri"},"geometry":{"type":"Point","coordinates":[79.255341,21.402786]}},{"id":"7","type":"Feature","properties":{"name":"Kandri","cluster":"beldongri"},"geometry":{"type":"Point","coordinates":[79.268678,21.412024]}},{"id":"8","type":"Feature","properties":{"name":"Beldongri (via Satak P.O.)","cluster":"beldongri"},"geometry":{"type":"Point","coordinates":[79.269646,21.338012]}}]}