{"type":"FeatureCollection","features":[{"id":"0","type":"Feature","properties":{"name":"Balaghat / Bharveli","mine_type":"underground","source":"OSM quarry operator=MOIL resource=manganese","offset_from_source_m":1244.1,"depth_m":383},"geometry":{"type":"Point","coordinates":[80.239336,21.851853]}},{"id":"1","type":"Feature","properties":{"name":"Chikla","mine_type":"underground","source":"OSM quarry name=MOIL Chikala Mines (+MOIL guest house/quarters adjacent)","offset_from_source_m":912.6,"depth_m":null},"geometry":{"type":"Point","coordinates":[79.74348,21.53801]}},{"id":"2","type":"Feature","properties":{"name":"Tirodi","mine_type":"opencast","source":"OSM quarry name=Tirodi Mine; Tirodi village 0.6km","offset_from_source_m":594.7,"depth_m":null},"geometry":{"type":"Point","coordinates":[79.719128,21.681971]}},{"id":"3","type":"Feature","properties":{"name":"Dongri Buzurg","mine_type":"opencast","source":"OSM quarry 1.5km from Dongri Buzurg SECR station","offset_from_source_m":620.0,"depth_m":null},"geometry":{"type":"Point","coordinates":[79.676276,21.543965]}},{"id":"4","type":"Feature","properties":{"name":"Ukwa","mine_type":"underground","source":"OSM quarry nearest PHC Ukwa (1.6km) / Ukwa village","offset_from_source_m":283.6,"depth_m":null},"geometry":{"type":"Point","coordinates":[80.457069,21.972343]}},{"id":"5","type":"Feature","properties":{"name":"Munsar","mine_type":"underground","source":"OSM Munsar Mine Hospital - mine assumed adjacent","offset_from_source_m":1028.9,"depth_m":null},"geometry":{"type":"Point","coordinates":[79.286392,21.404754]}},{"id":"6","type":"Feature","properties":{"name":"Mansar","mine_type":"underground","source":"OSM Mansar village","offset_from_source_m":1019.0,"depth_m":null},"geometry":{"type":"Point","coordinates":[79.255341,21.402786]}},{"id":"7","type":"Feature","properties":{"name":"Kandri","mine_type":"underground","source":"OSM Kandri village nearest Mansar/Munsar cluster - AMBIGUOUS, two Kandris exist","offset_from_source_m":1238.2,"depth_m":null},"geometry":{"type":"Point","coordinates":[79.268678,21.412024]}},{"id":"8","type":"Feature","properties":{"name":"Beldongri (via Satak P.O.)","mine_type":"unknown","source":"OSM Satak village","offset_from_source_m":459.5,"depth_m":null},"geometry":{"type":"Point","coordinates":[79.269646,21.338012]}}]}