{"type":"FeatureCollection","features":[{"id":"0","type":"Feature","properties":{"name":"Kamptee coal mine","commodity":"coal","operator":"Western Coalfields Limited"},"geometry":{"type":"Point","coordinates":[79.2280192,21.2425451]}},{"id":"1","type":"Feature","properties":{"name":"Shivpuri Coal Mine","commodity":"coal","operator":"Western Coalfields Limited (WCL)"},"geometry":{"type":"Point","coordinates":[78.8851885,22.2096686]}},{"id":"2","type":"Feature","properties":{"name":"Malanjkhand Copper Mine","commodity":"copper","operator":"Hindustan Copper Limited"},"geometry":{"type":"Point","coordinates":[80.7107697,22.0103196]}},{"id":"3","type":"Feature","properties":{"name":"Barkui Coal Mine","commodity":"coal","operator":"Western Coalfields Limited (WCL)"},"geometry":{"type":"Point","coordinates":[78.6834705,22.1977959]}},{"id":"4","type":"Feature","properties":{"name":"unnamed coal quarry","commodity":"coal","operator":""},"geometry":{"type":"Point","coordinates":[79.1499066,21.272519]}},{"id":"5","type":"Feature","properties":{"name":"Singhori coal mine","commodity":"coal","operator":"Western Coalfields Limited"},"geometry":{"type":"Point","coordinates":[79.1591388,21.272244]}},{"id":"6","type":"Feature","properties":{"name":"Gondegaon-Ghatrohana Coal Mine","commodity":"coal","operator":"Western Coalfields Limited (WCL)"},"geometry":{"type":"Point","coordinates":[79.1895711,21.2621906]}},{"id":"7","type":"Feature","properties":{"name":"Inder coal mine","commodity":"coal","operator":"Western Coalfields Limited"},"geometry":{"type":"Point","coordinates":[79.2071772,21.2499022]}},{"id":"8","type":"Feature","properties":{"name":"Adasa Coal Mine","commodity":"coal","operator":"Western Coalfields Limited (WCL)"},"geometry":{"type":"Point","coordinates":[78.9601135,21.345495]}},{"id":"9","type":"Feature","properties":{"name":"Urdhan Coal Mine","commodity":"coal","operator":"Western Coalfields Limited (WCL)"},"geometry":{"type":"Point","coordinates":[78.9578497,22.2756295]}},{"id":"10","type":"Feature","properties":{"name":"Mohan/Maurt UG and OC mine","commodity":"coal","operator":"Western Coalfields Limited (WCL)"},"geometry":{"type":"Point","coordinates":[78.6785513,22.179492]}},{"id":"11","type":"Feature","properties":{"name":"unnamed sand quarry","commodity":"sand","operator":""},"geometry":{"type":"Point","coordinates":[80.6954935,22.0787862]}},{"id":"12","type":"Feature","properties":{"name":"unnamed sand quarry","commodity":"sand","operator":""},"geometry":{"type":"Point","coordinates":[80.7338955,22.069893]}}]}