{"type":"FeatureCollection","features":[{"id":"0","type":"Feature","properties":{"rank":1,"area_ha":87.48,"score_mean":0.7162246455817011,"score_max":0.870220959186554,"lat":21.46584,"lon":78.44906,"near_non_mn_mine":false},"geometry":{"type":"Polygon","coordinates":[[[78.4483020231164,21.47016824812609],[78.44238334394949,21.46664693924639],[78.44221571280816,21.46519981165998],[78.4433948740033,21.463953857903128],[78.44572795368121,21.46290610004753],[78.44805156823634,21.462399875066808],[78.44961320908516,21.46134028009844],[78.45096313635035,21.461360868466986],[78.4545895906761,21.46358298296997],[78.45434026407662,21.466829474582703],[78.45334146006672,21.468800545152508],[78.45177661501708,21.47004069225372],[78.4483020231164,21.47016824812609]],[[78.45297144513343,21.467892049787903],[78.45316116141014,21.468075512192105],[78.45316430091336,21.467894988630093],[78.45297144513343,21.467892049787903]],[[78.44862696756583,21.462589228840866],[78.44919922502083,21.462959103889755],[78.44920551210832,21.462598057657928],[78.44862696756583,21.462589228840866]]]}},{"id":"1","type":"Feature","properties":{"rank":2,"area_ha":148.08,"score_mean":0.7049027886473122,"score_max":0.824566662311554,"lat":21.31085,"lon":79.67302,"near_non_mn_mine":false},"geometry":{"type":"Polygon","coordinates":[[[79.66883814853546,21.318132351663028],[79.66733162899996,21.314145679089318],[79.66794096736918,21.31071777372994],[79.66737400959248,21.30944859203784],[79.66738541776996,21.30818399121633],[79.66796377466943,21.308188571687285],[79.66738704744097,21.308003333940132],[79.667411490447,21.305293474317782],[79.6803279119976,21.305395283006636],[79.68031177491909,21.3072018656422],[79.67894612270032,21.30899785554177],[79.67892834993927,21.31098509445863],[79.6771689684143,21.313681327022437],[79.67676233750502,21.316026845616747],[79.67521186144296,21.31691799137584],[79.67174150704447,21.316890617567108],[79.66999494107947,21.31814150469226],[79.66883814853546,21.318132351663028]],[[79.66848350303573,21.314696812514796],[79.66906188569259,21.314701390541398],[79.6690667701442,21.31415941874973],[79.66887397661513,21.314157893004214],[79.66848350303573,21.314696812514796]],[[79.66855190101086,21.307109205943814],[79.66893421422047,21.307473571807574],[79.66893746963879,21.307112256992482],[79.66855190101086,21.307109205943814]]]}},{"id":"2","type":"Feature","properties":{"rank":3,"area_ha":859.76,"score_mean":0.7032716011373211,"score_max":0.8349683880805969,"lat":21.50309,"lon":78.3423,"near_non_mn_mine":false},"geometry":{"type":"Polygon","coordinates":[[[78.33918462267106,21.519564758237774],[78.33483341895347,21.514800782796332],[78.32296633038871,21.509555192267324],[78.3216326395279,21.508631006595515],[78.320887556858,21.507174592269436],[78.3217153387351,21.504118413195744],[78.3238634945676,21.502708414573625],[78.32675672402158,21.502754778282828],[78.32827008885361,21.50440402810749],[78.33212778848717,21.504465738118444],[78.33388680522641,21.503229939454716],[78.33372355330252,21.501602307866143],[78.33432194772834,21.500528515691354],[78.33241620003838,21.499234164265264],[78.3305730982898,21.494510194312603],[78.32769321672971,21.493741894015244],[78.3275531201579,21.49085072847909],[78.32933176599268,21.488531931879187],[78.33474841211667,21.487715675833105],[78.34165216195822,21.489992423603532],[78.34872612208375,21.49353552588337],[78.35086081194264,21.4928471680749],[78.35800039548779,21.492779729218057],[78.36028882047974,21.494260412609897],[78.36025949449076,21.49588499951413],[78.35831114550285,21.49693754814036],[78.35829483919765,21.497840094731394],[78.36163964550646,21.50493487704453],[78.36121475545036,21.50709489280814],[78.3592597292178,21.508508455184185],[78.35727854843186,21.51136606161916],[78.35303479245448,21.51129879423289],[78.35107963714842,21.512712246146286],[78.34818287695917,21.512846791050592],[78.34544621729012,21.514789424995428],[78.34463523905902,21.516943229083623],[78.34228098295583,21.51907244512258],[78.33918462267106,21.519564758237774]]]}},{"id":"3","type":"Feature","properties":{"rank":4,"area_ha":121.56,"score_mean":0.6965526874891509,"score_max":0.7958723306655884,"lat":22.21662,"lon":80.04039,"near_non_mn_mine":false},"geometry":{"type":"Polygon","coordinates":[[[80.03961383539651,22.222240914467164],[80.03807017467817,22.220967117935952],[80.03535740784078,22.22040905278358],[80.03439342671918,22.21949999451139],[80.03422042125796,22.21642761030591],[80.03481733452027,22.214263133865252],[80.0369664010621,22.21210784576176],[80.03911294160753,22.210313848727058],[80.04047107713257,22.210321860844996],[80.04471993927127,22.213237551041452],[80.04547892341407,22.215771364465112],[80.0462550322433,22.215775914912804],[80.04682979056967,22.216863294011244],[80.04681880458155,22.218489246772755],[80.04563995138142,22.2206503587245],[80.03961383539651,22.222240914467164]]]}},{"id":"4","type":"Feature","properties":{"rank":5,"area_ha":146.8,"score_mean":0.6963594251172744,"score_max":0.8012351989746094,"lat":21.46845,"lon":78.53349,"near_non_mn_mine":false},"geometry":{"type":"Polygon","coordinates":[[[78.53330693053523,21.474333792647165],[78.53198418780312,21.472689047983767],[78.52832873443964,21.472093285773454],[78.52703655707936,21.46864317077137],[78.52608441767723,21.46790676508181],[78.5259342464352,21.465376438640288],[78.52729343336105,21.464854812946047],[78.52907183440009,21.462353001130097],[78.53215759457385,21.462398580687275],[78.53580676092179,21.46335530822139],[78.54092008516017,21.469028592894396],[78.54067566989245,21.472094860730344],[78.53910536743733,21.473696965109454],[78.53330693053523,21.474333792647165]]]}},{"id":"5","type":"Feature","properties":{"rank":6,"area_ha":264.2,"score_mean":0.6917579426718516,"score_max":0.7760350108146667,"lat":21.9422,"lon":80.04876,"near_non_mn_mine":false},"geometry":{"type":"Polygon","coordinates":[[[80.04453512147285,21.952527664345386],[80.04125851992023,21.950159811370902],[80.0412718452237,21.948172473795786],[80.04243139629533,21.948540584207862],[80.04203680922564,21.94962232893517],[80.04319758309066,21.949809767240538],[80.04301117418282,21.94872463641934],[80.04378582472275,21.948729146672115],[80.04359578728666,21.948186017877582],[80.04185404115253,21.9479951957896],[80.04185767282398,21.94745319444376],[80.04379548976291,21.947283808979982],[80.04457858208151,21.946023644276377],[80.04324472414278,21.942763745693032],[80.04132392048928,21.940403785864802],[80.0388137388653,21.939305079002974],[80.03882709085124,21.937317740232857],[80.04135660706491,21.93552576870192],[80.04484824282717,21.934642721863334],[80.04485547849882,21.933558716424976],[80.05163176523652,21.933778623493136],[80.05355385454158,21.935957799637684],[80.05354548874111,21.937222475468502],[80.0552823529922,21.938135841890304],[80.05701209442852,21.9401331991917],[80.06010458889719,21.9410542888316],[80.06009034275688,21.943222307178523],[80.06106099554462,21.942866506008485],[80.06105743747466,21.943408510679294],[80.05872642717017,21.944479224811516],[80.0575656714292,21.944291896926515],[80.05717240147523,21.945193015095786],[80.05426274448972,21.94589899330236],[80.05309241421315,21.947156975598634],[80.05308403961666,21.948421649538282],[80.05211572593062,21.948416066020876],[80.05132908842775,21.950218270901733],[80.04725490052444,21.951278740536846],[80.04763741921903,21.952003655703148],[80.04666546854784,21.952540041029437],[80.04453512147285,21.952527664345386]],[[80.04473241092835,21.951986789136306],[80.04531341236185,21.95199016655792],[80.04531703164962,21.95144816492638],[80.04473603241793,21.951444787596618],[80.04473241092835,21.951986789136306]],[[80.047653063825,21.949654980114698],[80.04784552485202,21.949836769981644],[80.0478467279639,21.94965610259431],[80.047653063825,21.949654980114698]],[[80.04939844379575,21.949303739266195],[80.0495897057741,21.949666194641352],[80.04959210755742,21.9493048596716],[80.04939844379575,21.949303739266195]],[[80.04417315006775,21.948731400429317],[80.04436439784153,21.949093861409615],[80.04436681275901,21.94873252696562],[80.04417315006775,21.948731400429317]],[[80.05196637637282,21.941730243533343],[80.05254733736462,21.941733593888767],[80.05255571388831,21.94046891911748],[80.0523548806162,21.941551809529493],[80.05196637637282,21.941730243533343]],[[80.05719860171637,21.941218318644736],[80.05816448895011,21.94158520670481],[80.05816805765436,21.941043202365286],[80.05719860171637,21.941218318644736]],[[80.0541013460563,21.941019846535195],[80.05468111056584,21.9412038571771],[80.0546823045226,21.941023189241392],[80.0541013460563,21.941019846535195]],[[80.05139739643882,21.939920213427516],[80.05177751330501,21.941006455180325],[80.05197834998422,21.939923565532006],[80.05139739643882,21.939920213427516]],[[80.05199151952495,21.937936219264948],[80.05237642319969,21.93829978839968],[80.05237881657226,21.93793845263796],[80.05199151952495,21.937936219264948]],[[80.04037384307682,21.937688126599642],[80.0407599268042,21.937871054596727],[80.04076113813892,21.937690387321098],[80.04037384307682,21.937688126599642]],[[80.05354190321243,21.93776447933555],[80.05373435662798,21.937946262259093],[80.05373555158451,21.937765594301368],[80.05354190321243,21.93776447933555]],[[80.04618929653053,21.93681860376205],[80.04657418200834,21.937182185897974],[80.04657658989862,21.936820850697313],[80.04618929653053,21.93681860376205]]]}},{"id":"6","type":"Feature","properties":{"rank":7,"area_ha":157.32,"score_mean":0.687540310380297,"score_max":0.7913681864738464,"lat":21.36157,"lon":79.61626,"near_non_mn_mine":false},"geometry":{"type":"Polygon","coordinates":[[[79.61570621063582,21.3708193512097],[79.61571300382002,21.3700967429959],[79.61474359368083,21.370630742464662],[79.61301803672782,21.369532495326002],[79.61342587168474,21.367187207484495],[79.61287621984644,21.36411134404297],[79.61173101223687,21.36283721531235],[79.61003454180471,21.35866786115289],[79.61080592980737,21.358674245196642],[79.61022909275717,21.35848880560764],[79.61023761238177,21.35758554610645],[79.61140660289546,21.356330554892512],[79.61372922970098,21.355446414431643],[79.61548688112282,21.35311225233132],[79.61703129799099,21.35294431111546],[79.62143620607026,21.35623252790953],[79.62198770877927,21.359127721420847],[79.6194298907306,21.364526702609695],[79.61885132460564,21.36452194337905],[79.61961428101812,21.36543155092775],[79.61920824406742,21.3675962075042],[79.61995936681821,21.36977038093712],[79.61917775358457,21.370847949740096],[79.61570621063582,21.3708193512097]],[[79.61575375692772,21.36576109236447],[79.61594321842725,21.366123986978803],[79.61594661365415,21.365762682641762],[79.61575375692772,21.36576109236447]],[[79.6177602976833,21.3574669748962],[79.61814429558554,21.357650801964546],[79.61814598977053,21.357470149447526],[79.6177602976833,21.3574669748962]],[[79.61757253624073,21.356923429845818],[79.61776368694484,21.357105669908968],[79.61776538154886,21.356925017409335],[79.61757253624073,21.356923429845818]]]}},{"id":"7","type":"Feature","properties":{"rank":8,"area_ha":158.96,"score_mean":0.6870442037313622,"score_max":0.7974383234977722,"lat":22.1261,"lon":80.09447,"near_non_mn_mine":false},"geometry":{"type":"Polygon","coordinates":[[[80.10770713548497,22.13265413085201],[80.10674210910547,22.13192616191345],[80.10325391862118,22.13154569004305],[80.10132966745601,22.1291863651018],[80.09725177381088,22.130067225881884],[80.09609175674224,22.12951878953904],[80.09298685880721,22.12986291120166],[80.08853385957624,22.128754075196948],[80.084089108065,22.126380462458773],[80.08370830310011,22.125294294080348],[80.08761432053187,22.120980038948677],[80.08781752016273,22.119535796759468],[80.09033818939577,22.119549858090203],[80.09149810250753,22.120098332470874],[80.09150504913904,22.11901433712385],[80.09208674031765,22.119017572291835],[80.09401532048085,22.12065433532602],[80.09574197567912,22.1235546652353],[80.09998720424748,22.12683022704796],[80.10134112486189,22.127379703204866],[80.10328707462267,22.126306368167914],[80.1054166381386,22.126860069388435],[80.10676602667876,22.128132167101676],[80.10655502919414,22.13084110229022],[80.10868353804284,22.131575429745787],[80.10867785509691,22.13247876209832],[80.10770713548497,22.13265413085201]]]}},{"id":"8","type":"Feature","properties":{"rank":9,"area_ha":106.6,"score_mean":0.6854031066957156,"score_max":0.7595590353012085,"lat":22.25156,"lon":80.07801,"near_non_mn_mine":false},"geometry":{"type":"Polygon","coordinates":[[[80.08072455307634,22.256082895197324],[80.07568310033503,22.255331622215312],[80.07374939795831,22.254236599441075],[80.07025354340229,22.25457797430237],[80.06967845886126,22.25349067133969],[80.07026427858524,22.252952017768504],[80.07007735657034,22.251866936224957],[80.071250165943,22.250608961168172],[80.0766961580043,22.24883329961686],[80.0790439507103,22.24595591299405],[80.08157275849777,22.245066873547454],[80.08234432941593,22.245793907894804],[80.08269952856375,22.250854651116082],[80.08423570263282,22.253392682603355],[80.08441921189653,22.255019739058017],[80.08072455307634,22.256082895197324]]]}},{"id":"9","type":"Feature","properties":{"rank":10,"area_ha":149.44,"score_mean":0.6849245968129191,"score_max":0.7961488366127014,"lat":21.86016,"lon":79.33889,"near_non_mn_mine":false},"geometry":{"type":"Polygon","coordinates":[[[79.33868144409954,21.866702520853654],[79.33618272940899,21.865232195386053],[79.3308299704573,21.85957825984009],[79.33084256618815,21.858494555459874],[79.33474578397364,21.855643817551346],[79.33514740191782,21.854383401505896],[79.33630409968782,21.854756358686828],[79.3378644867056,21.85368826561805],[79.34114529884486,21.8544438730401],[79.34401836161932,21.857001716739614],[79.34400586622922,21.85808542858557],[79.34688528953413,21.86010137255933],[79.34667100476011,21.861905619623073],[79.34375405126248,21.863140803823985],[79.34296757293556,21.86421673307669],[79.3433378879852,21.865665571695754],[79.34255556217572,21.866380260961467],[79.33868144409954,21.866702520853654]],[[79.33353459556024,21.85996690893039],[79.33372598737955,21.860149483035727],[79.33372808314152,21.859968865394755],[79.33353459556024,21.85996690893039]]]}},{"id":"10","type":"Feature","properties":{"rank":11,"area_ha":247.8,"score_mean":0.6817398094765307,"score_max":0.7865762710571289,"lat":21.7356,"lon":79.47701,"near_non_mn_mine":false},"geometry":{"type":"Polygon","coordinates":[[[79.47234778771117,21.744612989070724],[79.47043919361195,21.742246911680706],[79.46857277689048,21.735906906163226],[79.46683660572177,21.735529537265375],[79.46666626932021,21.733360161005816],[79.4686167969021,21.73175236269777],[79.47036248675452,21.731226548100324],[79.47152245357564,21.7312372596423],[79.47228812887246,21.731966926903066],[79.4738385751084,21.731619924009618],[79.47520140272805,21.730729227128762],[79.47482618242893,21.72964186860278],[79.47794412395073,21.72732209735595],[79.48182197238985,21.726273786316856],[79.48375140640536,21.72665276430559],[79.48432380059586,21.727380608340084],[79.48424235580748,21.73514785755111],[79.48556540866066,21.73805038138746],[79.48515411379525,21.740395080349654],[79.48359411273069,21.74164535215446],[79.48147113944849,21.74126458777928],[79.47837195992209,21.741778077945316],[79.4752613234212,21.743375304903022],[79.4746698464585,21.744453756122095],[79.47234778771117,21.744612989070724]],[[79.47595185880019,21.73290394220311],[79.47613757158273,21.73362825352796],[79.47614518930216,21.73290572162988],[79.47595185880019,21.73290394220311]],[[79.47769183403136,21.732919948924266],[79.47846515687127,21.73292705715824],[79.47847086126313,21.73238515760687],[79.47789087127593,21.73237982691583],[79.47769183403136,21.732919948924266]]]}},{"id":"11","type":"Feature","properties":{"rank":12,"area_ha":229.72,"score_mean":0.6783489962083298,"score_max":0.7784539461135864,"lat":21.31114,"lon":79.05873,"near_non_mn_mine":false},"geometry":{"type":"Polygon","coordinates":[[[79.04452109952487,21.322507938357063],[79.0445522052519,21.320160133841938],[79.04611803811594,21.318372056207075],[79.04614194135166,21.316566050182324],[79.04731030310275,21.315676480613167],[79.04733180002141,21.314051073529924],[79.04830262767366,21.313520458446824],[79.0483145632653,21.312617453786086],[79.0490831028557,21.312807000305625],[79.04909980521478,21.311542793054926],[79.0516052982117,21.311571839925517],[79.0539585224758,21.30852839207678],[79.05646872475089,21.308196158866977],[79.05668283708495,21.30657296819594],[79.05806040033961,21.304421323469462],[79.07386602721188,21.304422414844634],[79.07268847887383,21.30603460392192],[79.0717224936273,21.30620416354916],[79.07051187475058,21.3103447820803],[79.06857039401437,21.31140627838676],[79.06759018987516,21.312659429370445],[79.06238402071301,21.3127801535494],[79.06121813657968,21.313489234585894],[79.05890770459705,21.313281951214403],[79.0567805075784,21.313799271179462],[79.05541234215211,21.315228488483065],[79.05308760880352,21.316104732244092],[79.0515028101559,21.319337692861748],[79.04899002432741,21.319850436998003],[79.04664845424473,21.321990786990952],[79.04452109952487,21.322507938357063]],[[79.05112925112758,21.318430219200383],[79.05131722219343,21.318793655536023],[79.05132199042856,21.318432453259852],[79.05112925112758,21.318430219200383]],[[79.0484905863003,21.31388389713242],[79.04887366591619,21.314068971144817],[79.048876052454,21.313888370171046],[79.0484905863003,21.31388389713242]],[[79.04946140921726,21.31335327494169],[79.04965175618001,21.31353611147524],[79.04965414170097,21.31335551040609],[79.04946140921726,21.31335327494169]],[[79.06711126351483,21.305067456607816],[79.06749198551668,21.305433091556836],[79.06749671093561,21.305071885235265],[79.06711126351483,21.305067456607816]]]}},{"id":"12","type":"Feature","properties":{"rank":13,"area_ha":103.76,"score_mean":0.6775578944703295,"score_max":0.7644363045692444,"lat":21.84509,"lon":79.29752,"near_non_mn_mine":false},"geometry":{"type":"Polygon","coordinates":[[[79.29530166003289,21.85307294920263],[79.29532737829453,21.850905578363403],[79.29437074188102,21.84999250143963],[79.29458350645834,21.84836897495249],[79.2928744808145,21.84564174245311],[79.29273465491038,21.841124384809348],[79.29604057456618,21.839713483672213],[79.29952493284193,21.839568810958642],[79.30221412976086,21.84122225122105],[79.30296877442979,21.84285575286074],[79.30294104896247,21.845203749544254],[79.29979860344197,21.849145386012257],[79.29706862316662,21.850923574908315],[79.29743844294346,21.852372487205166],[79.29665598185268,21.853086949631127],[79.29530166003289,21.85307294920263]]]}},{"id":"13","type":"Feature","properties":{"rank":14,"area_ha":306.48,"score_mean":0.6767611359840459,"score_max":0.7808405756950378,"lat":21.52582,"lon":79.5629,"near_non_mn_mine":false},"geometry":{"type":"Polygon","coordinates":[[[79.55698473046027,21.536532851692193],[79.55545263025164,21.535254974271922],[79.55527385476704,21.533808151711455],[79.55705077947393,21.529849025377377],[79.55514154828096,21.52766458825638],[79.55249413481492,21.5220412019781],[79.55039201582886,21.51985504349174],[79.55040276798303,21.51877118114236],[79.55137877480202,21.517695699335285],[79.55254602776529,21.51680252909173],[79.55409042864608,21.51681591526348],[79.55639632564322,21.517919833230266],[79.5588810599285,21.520470543387038],[79.56119416871587,21.520851821733366],[79.56526431493377,21.51926092215842],[79.56796707787167,21.51928413520467],[79.57219663257159,21.52112697888915],[79.5737287486797,21.52240470448777],[79.57525208310389,21.52458564529096],[79.57522741636602,21.527114683110465],[79.57249625157104,21.529981904195658],[79.56802378224664,21.533195455476324],[79.56513478929868,21.53244798995579],[79.55972878675603,21.532401401345957],[79.55950363788723,21.53565132867607],[79.5581431897167,21.536542870581187],[79.55698473046027,21.536532851692193]]]}},{"id":"14","type":"Feature","properties":{"rank":15,"area_ha":244.72,"score_mean":0.6767346647565916,"score_max":0.7830255627632141,"lat":22.01877,"lon":80.29891,"near_non_mn_mine":false},"geometry":{"type":"Polygon","coordinates":[[[80.29613507783505,22.029142602805532],[80.29343016657309,22.027504832240552],[80.29169960667986,22.024787148122016],[80.28918590110709,22.023692178282992],[80.28940130561877,22.019356772763434],[80.2932973291786,22.015217955565287],[80.29659579725535,22.01432873774316],[80.30359426262103,22.009660903040576],[80.30669702875308,22.009132008862103],[80.30920537015233,22.011310776364002],[80.30899058697833,22.015646228261776],[80.30820675059093,22.01744973648037],[80.30646019339645,22.017984399394816],[80.30471803148492,22.01761565537964],[80.30316169557187,22.018873814748655],[80.30159470425473,22.02230008720969],[80.301384980165,22.025551453195447],[80.2994409645365,22.026807919989746],[80.29865961210879,22.028069343939926],[80.29613507783505,22.029142602805532]]]}},{"id":"15","type":"Feature","properties":{"rank":16,"area_ha":99.04,"score_mean":0.6763601456445331,"score_max":0.7522046566009521,"lat":21.66764,"lon":78.8137,"near_non_mn_mine":false},"geometry":{"type":"Polygon","coordinates":[[[78.80990560905688,21.671975640678063],[78.80818067802103,21.671049852092885],[78.8070653346002,21.66814548655518],[78.80708718343242,21.666700961475577],[78.80847484278607,21.664371469697347],[78.82064433537886,21.6645317332851],[78.82175451321119,21.667797163929578],[78.81825840186134,21.66901545072764],[78.81338278107047,21.672021506490648],[78.80990560905688,21.671975640678063]]]}},{"id":"16","type":"Feature","properties":{"rank":17,"area_ha":136.04,"score_mean":0.6761686546912582,"score_max":0.7439880967140198,"lat":21.7715,"lon":79.68467,"near_non_mn_mine":false},"geometry":{"type":"Polygon","coordinates":[[[79.68534007616422,21.777154457198872],[79.68051646675438,21.77585139829313],[79.67802206836498,21.773663536683483],[79.6784353516478,21.770776260303023],[79.67941887820767,21.768977504345532],[79.67923871105991,21.767530774280036],[79.68021394247445,21.766635252771795],[79.68041889882711,21.76537225773433],[79.68196932853708,21.765023297788307],[79.68236600639288,21.76394248871308],[79.68294617467727,21.763947109652786],[79.68351480766991,21.765216268635207],[79.6873678460926,21.766872850803747],[79.68849701057981,21.770314385035025],[79.6908145142618,21.77069407365297],[79.69350247126675,21.77288327845989],[79.69291244323959,21.77396258718527],[79.6907784455527,21.77466835020172],[79.68902138697976,21.776461044676225],[79.68534007616422,21.777154457198872]]]}},{"id":"17","type":"Feature","properties":{"rank":18,"area_ha":117.96,"score_mean":0.6761089670088138,"score_max":0.7572382688522339,"lat":21.32457,"lon":79.43958,"near_non_mn_mine":false},"geometry":{"type":"Polygon","coordinates":[[[79.4354233139497,21.329491244765272],[79.43273955456418,21.32802099428311],[79.43238083575527,21.325488466357783],[79.43355673657935,21.32369286742441],[79.43686470568565,21.32083315650467],[79.4386035694738,21.320488000687927],[79.44074134537018,21.318881930091468],[79.44209080742158,21.31889443843969],[79.44362733797756,21.31945063791996],[79.44438323507404,21.320902887439516],[79.4466947341089,21.321104914914677],[79.44668332912663,21.322188751125083],[79.44531290485999,21.324163309193956],[79.4456832610246,21.325611988175694],[79.44451890898226,21.32632384525639],[79.44411237866703,21.328307306218143],[79.44218063723477,21.328650727182517],[79.44219017215187,21.32774753298127],[79.4416117964434,21.327742171811096],[79.44160035023874,21.328826004542048],[79.4354233139497,21.329491244765272]],[[79.43581656066237,21.328772280492128],[79.43620023169784,21.328956506590917],[79.43620214607071,21.328775868281678],[79.43581656066237,21.328772280492128]],[[79.43794684235765,21.327888810043092],[79.43813581024524,21.32825187852238],[79.43813963409436,21.327890601534936],[79.43794684235765,21.327888810043092]],[[79.4358337933557,21.327146535826564],[79.43621746032865,21.327330761662182],[79.43621937452025,21.327150123316557],[79.4358337933557,21.327146535826564]],[[79.43451875010777,21.323882484437195],[79.43509519348876,21.324068507399257],[79.4350971087321,21.32388786908075],[79.43451875010777,21.323882484437195]],[[79.44204123980872,21.323591051899818],[79.44262150536201,21.32341577162236],[79.4426253172825,21.323054493653334],[79.44204886647815,21.32286849616064],[79.44204123980872,21.323591051899818]],[[79.44552281432087,21.32253933886575],[79.4457117955105,21.32290239976823],[79.44571559976832,21.322541121245226],[79.44552281432087,21.32253933886575]]]}},{"id":"18","type":"Feature","properties":{"rank":19,"area_ha":334.44,"score_mean":0.6757274310763637,"score_max":0.7526639103889465,"lat":21.37996,"lon":79.73731,"near_non_mn_mine":false},"geometry":{"type":"Polygon","coordinates":[[[79.74089329675903,21.392582590669704],[79.73820352385759,21.391297667959495],[79.73763567717191,21.39002868903079],[79.73667118719214,21.39002142653511],[79.7359073574301,21.389112310311187],[79.7328147875572,21.389811660894424],[79.72936292173704,21.387436810318643],[79.72994940134582,21.38653789276624],[79.72977210455672,21.38472983108365],[79.73035545251476,21.384192231513623],[79.7305701601952,21.381664448324656],[79.73024360876633,21.374796437719134],[79.72931040478967,21.37117593085386],[79.72990927948659,21.368831724928565],[79.73684794996184,21.36942610459777],[79.7366473294916,21.370327957581424],[79.73722129824668,21.370874294854023],[79.73857450421048,21.37052312564251],[79.73895560791058,21.37106800760703],[79.73858069444596,21.369800481437093],[79.73915930932571,21.369804829101454],[79.73972864741395,21.370893141539582],[79.7424335012757,21.370371412174045],[79.74416319266093,21.371107055387505],[79.74432217047278,21.375083049067047],[79.74373120029142,21.376524008497068],[79.74486845977967,21.378881266174993],[79.746413070642,21.378712140968247],[79.74601806808973,21.379793226516984],[79.74678653266919,21.380160314162566],[79.74677268749856,21.3817862666666],[79.7455999610621,21.383584229934588],[79.74405221435873,21.384114667275174],[79.74229766805149,21.38626959247926],[79.74226986850587,21.38952148918627],[79.74303682857433,21.390069256563216],[79.74283312236751,21.391332437061138],[79.74360317995016,21.39151888043713],[79.74378990886454,21.39224296929349],[79.74089329675903,21.392582590669704]],[[79.73783012526762,21.389849480290994],[79.73821437135523,21.390033043867334],[79.73821592093263,21.38985238326675],[79.73783012526762,21.389849480290994]],[[79.73494598112688,21.388743717386127],[79.73533022043148,21.38892728727517],[79.7353317734621,21.388746626852353],[79.73494598112688,21.388743717386127]],[[79.73842276212305,21.38822788871613],[79.7390014493998,21.388232240488968],[79.73900609475422,21.387690258394237],[79.73842740960791,21.387685906742252],[79.73842276212305,21.38822788871613]],[[79.73307302091206,21.38222538469057],[79.73326435334148,21.38240750168467],[79.73326590838776,21.382226841266238],[79.73307302091206,21.38222538469057]],[[79.73269191318015,21.381680489716405],[79.73307613142886,21.381864063868683],[79.73307768666274,21.381683403451742],[79.73269191318015,21.381680489716405]],[[79.73195149604919,21.378061452027527],[79.73214126578867,21.37842423047737],[79.7321443779849,21.378062909622614],[79.73195149604919,21.378061452027527]],[[79.73312433608054,21.376263589086008],[79.73331255217838,21.37680702685545],[79.7333172157487,21.37626504521664],[79.73312433608054,21.376263589086008]],[[79.7319950665517,21.373002958761184],[79.73257213737936,21.373187990316232],[79.73257369253842,21.373007329748024],[79.7319950665517,21.373002958761184]],[[79.73257680280754,21.372646008599634],[79.73276656790003,21.373008786300552],[79.73276967769614,21.372647465125176],[79.73257680280754,21.372646008599634]]]}},{"id":"19","type":"Feature","properties":{"rank":20,"area_ha":48.12,"score_mean":0.6746461549007388,"score_max":0.758677065372467,"lat":21.72405,"lon":80.27512,"near_non_mn_mine":false},"geometry":{"type":"Polygon","coordinates":[[[80.27653541785189,21.727315690006996],[80.27247542702972,21.727117220606942],[80.27209686047188,21.725489377181937],[80.2707523557303,21.723676596735995],[80.27075508871675,21.72313454861615],[80.27191713059177,21.722778286278718],[80.27172739952277,21.722054705257506],[80.27386171573355,21.720618578961655],[80.27637458645876,21.720810260247454],[80.27945496797976,21.72353399062315],[80.27905831796397,21.72551982120466],[80.27750861836145,21.726055129922354],[80.27653541785189,21.727315690006996]]]}}]}