{
  "type": "FeatureCollection",
  "name": "aoi",
  "crs": { "type": "name", "properties": { "name": "urn:ogc:def:crs:OGC:1.3/CRS84" } },
  "features": [
    {
      "type": "Feature",
      "properties": {
        "name": "belt_sausar",
        "role": "training",
        "description": "Sausar Group manganese belt: Chhindwara-Seoni-Balaghat (MP), spilling into Nagpur/Bhandara (MH). Primary training AOI.",
        "verified": false
      },
      "geometry": {
        "type": "Polygon",
        "coordinates": [[[78.30, 21.30], [80.90, 21.30], [80.90, 22.30], [78.30, 22.30], [78.30, 21.30]]]
      }
    },
    {
      "type": "Feature",
      "properties": {
        "name": "belt_jhabua",
        "role": "training_secondary",
        "description": "Western MP manganese occurrences near Jhabua. EXTENT NOT VERIFIED - confirm against GSI/IBM sources before relying on this.",
        "verified": false
      },
      "geometry": {
        "type": "Polygon",
        "coordinates": [[[74.35, 22.55], [74.95, 22.55], [74.95, 23.05], [74.35, 23.05], [74.35, 22.55]]]
      }
    },
    {
      "type": "Feature",
      "properties": {
        "name": "mp_bbox",
        "role": "search_only",
        "description": "Bounding box used for Bhoonidhi catalogue searches. ~65% of this box is NOT Madhya Pradesh - never use as an inference area.",
        "verified": true
      },
      "geometry": {
        "type": "Polygon",
        "coordinates": [[[74.00, 21.00], [82.80, 21.00], [82.80, 26.90], [74.00, 26.90], [74.00, 21.00]]]
      }
    }
  ]
}
